{
  "type": "FeatureCollection",
  "features": [
    {
      "type": "Feature",
      "properties": {
        "norad_id": 39766,
        "name": "ALOS-2",
        "group": "resource",
        "lat": -56.69265332841298,
        "lon": 83.68190930210098,
        "alt_km": 638.8396285702911,
        "timestamp": "2025-12-02T10:50:46.930293+00:00",
        "meta_object_name": "ALOS-2",
        "meta_object_id": "2014-029A",
        "meta_epoch": "2025-12-02T04:36:48.583872",
        "meta_mean_motion": 14.79507399,
        "meta_eccentricity": 0.0001381,
        "meta_inclination": 97.9234,
        "meta_ra_of_asc_node": 71.1886,
        "meta_arg_of_pericenter": 98.7249,
        "meta_mean_anomaly": 261.4119,
        "meta_ephemeris_type": 0,
        "meta_classification_type": "U",
        "meta_norad_cat_id": 39766,
        "meta_element_set_no": 999,
        "meta_rev_at_epoch": 62245,
        "meta_bstar": 0.00033805,
        "meta_mean_motion_dot": 2.476e-05,
        "meta_mean_motion_ddot": 0,
        "tle_line1": "1 39766U 14029A   25336.19222898  .00002476  00000+0  33805-3 0  9997",
        "tle_line2": "2 39766  97.9234  71.1886 0001381  98.7249 261.4119 14.79507399622457"
      },
      "geometry": {
        "type": "Point",
        "coordinates": [
          83.68190930210098,
          -56.69265332841298
        ]
      }
    },
    {
      "type": "Feature",
      "properties": {
        "norad_id": 40010,
        "name": "KAZEOSAT 2",
        "group": "resource",
        "lat": 2.2668791399869836,
        "lon": -179.0037532219497,
        "alt_km": 618.1591881397526,
        "timestamp": "2025-12-02T10:50:46.930303+00:00",
        "meta_object_name": "KAZEOSAT 2",
        "meta_object_id": "2014-033A",
        "meta_epoch": "2025-12-02T04:22:05.016864",
        "meta_mean_motion": 14.85139234,
        "meta_eccentricity": 0.0007202,
        "meta_inclination": 97.5512,
        "meta_ra_of_asc_node": 181.0412,
        "meta_arg_of_pericenter": 246.4174,
        "meta_mean_anomaly": 113.6285,
        "meta_ephemeris_type": 0,
        "meta_classification_type": "U",
        "meta_norad_cat_id": 40010,
        "meta_element_set_no": 999,
        "meta_rev_at_epoch": 61971,
        "meta_bstar": 0.0001158,
        "meta_mean_motion_dot": 9.41e-06,
        "meta_mean_motion_ddot": 0,
        "tle_line1": "1 40010U 14033A   25336.18200251  .00000941  00000+0  11580-3 0  9995",
        "tle_line2": "2 40010  97.5512 181.0412 0007202 246.4174 113.6285 14.85139234619712"
      },
      "geometry": {
        "type": "Point",
        "coordinates": [
          -179.0037532219497,
          2.2668791399869836
        ]
      }
    },
    {
      "type": "Feature",
      "properties": {
        "norad_id": 40011,
        "name": "HODOYOSHI-4",
        "group": "resource",
        "lat": 5.190247888659906,
        "lon": 165.1531187903315,
        "alt_km": 618.3259402567601,
        "timestamp": "2025-12-02T10:50:46.930313+00:00",
        "meta_object_name": "HODOYOSHI-4",
        "meta_object_id": "2014-033B",
        "meta_epoch": "2025-12-02T04:21:52.888032",
        "meta_mean_motion": 14.87417737,
        "meta_eccentricity": 0.0022601,
        "meta_inclination": 97.5417,
        "meta_ra_of_asc_node": 165.586,
        "meta_arg_of_pericenter": 236.9308,
        "meta_mean_anomaly": 122.9739,
        "meta_ephemeris_type": 0,
        "meta_classification_type": "U",
        "meta_norad_cat_id": 40011,
        "meta_element_set_no": 999,
        "meta_rev_at_epoch": 61951,
        "meta_bstar": 0.00022336,
        "meta_mean_motion_dot": 1.978e-05,
        "meta_mean_motion_ddot": 0,
        "tle_line1": "1 40011U 14033B   25336.18186213  .00001978  00000+0  22336-3 0  9999",
        "tle_line2": "2 40011  97.5417 165.5860 0022601 236.9308 122.9739 14.87417737619518"
      },
      "geometry": {
        "type": "Point",
        "coordinates": [
          165.1531187903315,
          5.190247888659906
        ]
      }
    },
    {
      "type": "Feature",
      "properties": {
        "norad_id": 40013,
        "name": "DEIMOS-2",
        "group": "resource",
        "lat": -40.20334907645294,
        "lon": -140.9235120738903,
        "alt_km": 595.7406684747366,
        "timestamp": "2025-12-02T10:50:46.930323+00:00",
        "meta_object_name": "DEIMOS-2",
        "meta_object_id": "2014-033D",
        "meta_epoch": "2025-12-02T04:35:36.938400",
        "meta_mean_motion": 14.92893321,
        "meta_eccentricity": 7.41e-05,
        "meta_inclination": 97.6073,
        "meta_ra_of_asc_node": 212.3389,
        "meta_arg_of_pericenter": 80.8455,
        "meta_mean_anomaly": 279.2848,
        "meta_ephemeris_type": 0,
        "meta_classification_type": "U",
        "meta_norad_cat_id": 40013,
        "meta_element_set_no": 999,
        "meta_rev_at_epoch": 60832,
        "meta_bstar": 0.00028071,
        "meta_mean_motion_dot": 2.856e-05,
        "meta_mean_motion_ddot": 0,
        "tle_line1": "1 40013U 14033D   25336.19139975  .00002856  00000+0  28071-3 0  9993",
        "tle_line2": "2 40013  97.6073 212.3389 0000741  80.8455 279.2848 14.92893321608323"
      },
      "geometry": {
        "type": "Point",
        "coordinates": [
          -140.9235120738903,
          -40.20334907645294
        ]
      }
    },
    {
      "type": "Feature",
      "properties": {
        "norad_id": 40015,
        "name": "HODOYOSHI-3",
        "group": "resource",
        "lat": 29.304027121893427,
        "lon": 138.42554318271226,
        "alt_km": 619.2545041726353,
        "timestamp": "2025-12-02T10:50:46.930333+00:00",
        "meta_object_name": "HODOYOSHI-3",
        "meta_object_id": "2014-033F",
        "meta_epoch": "2025-12-02T01:00:32.025312",
        "meta_mean_motion": 14.84745101,
        "meta_eccentricity": 0.0031869,
        "meta_inclination": 97.6193,
        "meta_ra_of_asc_node": 142.3425,
        "meta_arg_of_pericenter": 284.5745,
        "meta_mean_anomaly": 75.1937,
        "meta_ephemeris_type": 0,
        "meta_classification_type": "U",
        "meta_norad_cat_id": 40015,
        "meta_element_set_no": 999,
        "meta_rev_at_epoch": 61836,
        "meta_bstar": 0.0002442,
        "meta_mean_motion_dot": 2.036e-05,
        "meta_mean_motion_ddot": 0,
        "tle_line1": "1 40015U 14033F   25336.04203733  .00002036  00000+0  24420-3 0  9997",
        "tle_line2": "2 40015  97.6193 142.3425 0031869 284.5745  75.1937 14.84745101618361"
      },
      "geometry": {
        "type": "Point",
        "coordinates": [
          138.42554318271226,
          29.304027121893427
        ]
      }
    },
    {
      "type": "Feature",
      "properties": {
        "norad_id": 40053,
        "name": "SPOT 7",
        "group": "resource",
        "lat": -76.14042919885381,
        "lon": 73.97864165647648,
        "alt_km": 699.2627311509514,
        "timestamp": "2025-12-02T10:50:46.930343+00:00",
        "meta_object_name": "SPOT 7",
        "meta_object_id": "2014-034A",
        "meta_epoch": "2025-12-02T04:37:49.008576",
        "meta_mean_motion": 14.60711207,
        "meta_eccentricity": 0.0001505,
        "meta_inclination": 98.092,
        "meta_ra_of_asc_node": 38.5109,
        "meta_arg_of_pericenter": 97.6458,
        "meta_mean_anomaly": 262.4914,
        "meta_ephemeris_type": 0,
        "meta_classification_type": "U",
        "meta_norad_cat_id": 40053,
        "meta_element_set_no": 999,
        "meta_rev_at_epoch": 60837,
        "meta_bstar": 0.00015477,
        "meta_mean_motion_dot": 7.09e-06,
        "meta_mean_motion_ddot": 0,
        "tle_line1": "1 40053U 14034A   25336.19292834  .00000709  00000+0  15477-3 0  9993",
        "tle_line2": "2 40053  98.0920  38.5109 0001505  97.6458 262.4914 14.60711207608379"
      },
      "geometry": {
        "type": "Point",
        "coordinates": [
          73.97864165647648,
          -76.14042919885381
        ]
      }
    },
    {
      "type": "Feature",
      "properties": {
        "norad_id": 40072,
        "name": "SKYSAT-B",
        "group": "resource",
        "lat": -46.1339595674315,
        "lon": -71.58461520437601,
        "alt_km": 615.6913298320214,
        "timestamp": "2025-12-02T10:50:46.930353+00:00",
        "meta_object_name": "SKYSAT-B",
        "meta_object_id": "2014-037D",
        "meta_epoch": "2025-12-02T01:22:06.331872",
        "meta_mean_motion": 14.87260688,
        "meta_eccentricity": 0.0005278,
        "meta_inclination": 98.359,
        "meta_ra_of_asc_node": 279.2005,
        "meta_arg_of_pericenter": 183.5054,
        "meta_mean_anomaly": 176.6124,
        "meta_ephemeris_type": 0,
        "meta_classification_type": "U",
        "meta_norad_cat_id": 40072,
        "meta_element_set_no": 999,
        "meta_rev_at_epoch": 61665,
        "meta_bstar": 0.00029035,
        "meta_mean_motion_dot": 2.557e-05,
        "meta_mean_motion_ddot": 0,
        "tle_line1": "1 40072U 14037D   25336.05701773  .00002557  00000+0  29035-3 0  9997",
        "tle_line2": "2 40072  98.3590 279.2005 0005278 183.5054 176.6124 14.87260688616653"
      },
      "geometry": {
        "type": "Point",
        "coordinates": [
          -71.58461520437601,
          -46.1339595674315
        ]
      }
    }
  ]
}